{"type": "FeatureCollection", "features": [ {"type": "Feature", "properties": {"norad_id": 32289, "name": "YAOGAN-3", "group": "resource", "lat": -66.20724736380667, "lon": 172.1560555568487, "alt_km": 606.6873228136019, "timestamp": "2025-12-09T16:56:36.236665+00:00", "meta": {"OBJECT_NAME": "YAOGAN-3", "OBJECT_ID": "2007-055A", "EPOCH": "2025-12-09T12:36:44.650656", "MEAN_MOTION": 14.89836279, "ECCENTRICITY": 0.0001433, "INCLINATION": 97.8365, "RA_OF_ASC_NODE": 10.1795, "ARG_OF_PERICENTER": 70.7065, "MEAN_ANOMALY": 289.4307, "EPHEMERIS_TYPE": 0, "CLASSIFICATION_TYPE": "U", "NORAD_CAT_ID": 32289, "ELEMENT_SET_NO": 999, "REV_AT_EPOCH": 97761, "BSTAR": 0.00047882, "MEAN_MOTION_DOT": 4.544e-05, "MEAN_MOTION_DDOT": 0}, "tle": {"line1": "1 32289U 07055A   25343.52551679  .00004544  00000+0  47882-3 0  9996", "line2": "2 32289  97.8365  10.1795 0001433  70.7065 289.4307 14.89836279977613"}}, "geometry": {"type": "Point", "coordinates": [172.1560555568487, -66.20724736380667]}}, {"type": "Feature", "properties": {"norad_id": 32376, "name": "COSMO-SKYMED 2", "group": "resource", "lat": -68.84579228616738, "lon": -35.900574934713994, "alt_km": 630.8241006131575, "timestamp": "2025-12-09T16:56:36.236677+00:00", "meta": {"OBJECT_NAME": "COSMO-SKYMED 2", "OBJECT_ID": "2007-059A", "EPOCH": "2025-12-09T12:34:37.905312", "MEAN_MOTION": 14.82160577, "ECCENTRICITY": 0.0001534, "INCLINATION": 97.8812, "RA_OF_ASC_NODE": 164.8962, "ARG_OF_PERICENTER": 85.5633, "MEAN_ANOMALY": 274.5756, "EPHEMERIS_TYPE": 0, "CLASSIFICATION_TYPE": "U", "NORAD_CAT_ID": 32376, "ELEMENT_SET_NO": 999, "REV_AT_EPOCH": 97390, "BSTAR": 0.00013865, "MEAN_MOTION_DOT": 1.052e-05, "MEAN_MOTION_DDOT": 0}, "tle": {"line1": "1 32376U 07059A   25343.52404983  .00001052  00000+0  13865-3 0  9997", "line2": "2 32376  97.8812 164.8962 0001534  85.5633 274.5756 14.82160577973902"}}, "geometry": {"type": "Point", "coordinates": [-35.900574934713994, -68.84579228616738]}}, {"type": "Feature", "properties": {"norad_id": 32382, "name": "RADARSAT-2", "group": "resource", "lat": 47.3227852271582, "lon": -21.0835219307475, "alt_km": 786.9239985252216, "timestamp": "2025-12-09T16:56:36.236688+00:00", "meta": {"OBJECT_NAME": "RADARSAT-2", "OBJECT_ID": "2007-061A", "EPOCH": "2025-12-09T11:40:54.092352", "MEAN_MOTION": 14.29986917, "ECCENTRICITY": 0.0001093, "INCLINATION": 98.5794, "RA_OF_ASC_NODE": 348.1239, "ARG_OF_PERICENTER": 85.8725, "MEAN_ANOMALY": 274.2583, "EPHEMERIS_TYPE": 0, "CLASSIFICATION_TYPE": "U", "NORAD_CAT_ID": 32382, "ELEMENT_SET_NO": 999, "REV_AT_EPOCH": 93884, "BSTAR": 0.0001715, "MEAN_MOTION_DOT": 3.99e-06, "MEAN_MOTION_DDOT": 0}, "tle": {"line1": "1 32382U 07061A   25343.48673718  .00000399  00000+0  17150-3 0  9990", "line2": "2 32382  98.5794 348.1239 0001093  85.8725 274.2583 14.29986917938849"}}, "geometry": {"type": "Point", "coordinates": [-21.0835219307475, 47.3227852271582]}}, {"type": "Feature", "properties": {"norad_id": 32783, "name": "CARTOSAT-2A", "group": "resource", "lat": 64.12911208051008, "lon": 17.220748075775976, "alt_km": 621.1108358177698, "timestamp": "2025-12-09T16:56:36.236699+00:00", "meta": {"OBJECT_NAME": "CARTOSAT-2A", "OBJECT_ID": "2008-021A", "EPOCH": "2025-12-09T13:24:08.916192", "MEAN_MOTION": 14.78927372, "ECCENTRICITY": 0.0012184, "INCLINATION": 97.7928, "RA_OF_ASC_NODE": 33.4811, "ARG_OF_PERICENTER": 14.517, "MEAN_ANOMALY": 345.6389, "EPHEMERIS_TYPE": 0, "CLASSIFICATION_TYPE": "U", "NORAD_CAT_ID": 32783, "ELEMENT_SET_NO": 999, "REV_AT_EPOCH": 95077, "BSTAR": 0.00017292, "MEAN_MOTION_DOT": 1.226e-05, "MEAN_MOTION_DDOT": 0}, "tle": {"line1": "1 32783U 08021A   25343.55843653  .00001226  00000+0  17292-3 0  9994", "line2": "2 32783  97.7928  33.4811 0012184  14.5170 345.6389 14.78927372950777"}}, "geometry": {"type": "Point", "coordinates": [17.220748075775976, 64.12911208051008]}}, {"type": "Feature", "properties": {"norad_id": 33320, "name": "HUANJING 1A (HJ-1A)", "group": "resource", "lat": -61.070236268545656, "lon": 138.0489735091867, "alt_km": 639.3989018075226, "timestamp": "2025-12-09T16:56:36.236709+00:00", "meta": {"OBJECT_NAME": "HUANJING 1A (HJ-1A)", "OBJECT_ID": "2008-041A", "EPOCH": "2025-12-09T12:37:06.322368", "MEAN_MOTION": 14.83375808, "ECCENTRICITY": 0.0020346, "INCLINATION": 97.654, "RA_OF_ASC_NODE": 331.9582, "ARG_OF_PERICENTER": 44.4893, "MEAN_ANOMALY": 315.7951, "EPHEMERIS_TYPE": 0, "CLASSIFICATION_TYPE": "U", "NORAD_CAT_ID": 33320, "ELEMENT_SET_NO": 999, "REV_AT_EPOCH": 93028, "BSTAR": 0.0001528, "MEAN_MOTION_DOT": 1.206e-05, "MEAN_MOTION_DDOT": 0}, "tle": {"line1": "1 33320U 08041A   25343.52576762  .00001206  00000+0  15280-3 0  9998", "line2": "2 33320  97.6540 331.9582 0020346  44.4893 315.7951 14.83375808930282"}}, "geometry": {"type": "Point", "coordinates": [138.0489735091867, -61.070236268545656]}}, {"type": "Feature", "properties": {"norad_id": 33321, "name": "HUANJING 1B (HJ-1B)", "group": "resource", "lat": 69.01709516477815, "lon": 176.32204592479744, "alt_km": 589.3543725452864, "timestamp": "2025-12-09T16:56:36.236720+00:00", "meta": {"OBJECT_NAME": "HUANJING 1B (HJ-1B)", "OBJECT_ID": "2008-041B", "EPOCH": "2025-12-09T13:12:53.068608", "MEAN_MOTION": 14.82809317, "ECCENTRICITY": 0.0038268, "INCLINATION": 97.6398, "RA_OF_ASC_NODE": 335.6873, "ARG_OF_PERICENTER": 85.7251, "MEAN_ANOMALY": 274.8335, "EPHEMERIS_TYPE": 0, "CLASSIFICATION_TYPE": "U", "NORAD_CAT_ID": 33321, "ELEMENT_SET_NO": 999, "REV_AT_EPOCH": 93030, "BSTAR": 0.00028078, "MEAN_MOTION_DOT": 2.249e-05, "MEAN_MOTION_DDOT": 0}, "tle": {"line1": "1 33321U 08041B   25343.55061422  .00002249  00000+0  28078-3 0  9991", "line2": "2 33321  97.6398 335.6873 0038268  85.7251 274.8335 14.82809317930306"}}, "geometry": {"type": "Point", "coordinates": [176.32204592479744, 69.01709516477815]}}, {"type": "Feature", "properties": {"norad_id": 33331, "name": "GEOEYE 1", "group": "resource", "lat": -66.82176477230614, "lon": 74.51776054440789, "alt_km": 682.9815540598629, "timestamp": "2025-12-09T16:56:36.236731+00:00", "meta": {"OBJECT_NAME": "GEOEYE 1", "OBJECT_ID": "2008-042A", "EPOCH": "2025-12-09T12:20:09.619008", "MEAN_MOTION": 14.64806465, "ECCENTRICITY": 0.0002771, "INCLINATION": 98.1256, "RA_OF_ASC_NODE": 54.835, "ARG_OF_PERICENTER": 291.0006, "MEAN_ANOMALY": 69.0901, "EPHEMERIS_TYPE": 0, "CLASSIFICATION_TYPE": "U", "NORAD_CAT_ID": 33331, "ELEMENT_SET_NO": 999, "REV_AT_EPOCH": 92238, "BSTAR": 0.00022651, "MEAN_MOTION_DOT": 1.161e-05, "MEAN_MOTION_DDOT": 0}, "tle": {"line1": "1 33331U 08042A   25343.51400022  .00001161  00000+0  22651-3 0  9995", "line2": "2 33331  98.1256  54.8350 0002771 291.0006  69.0901 14.64806465922389"}}, "geometry": {"type": "Point", "coordinates": [74.51776054440789, -66.82176477230614]}}, {"type": "Feature", "properties": {"norad_id": 33396, "name": "THEOS", "group": "resource", "lat": -79.43822537461045, "lon": 96.01468802050688, "alt_km": 833.1516520679834, "timestamp": "2025-12-09T16:56:36.236742+00:00", "meta": {"OBJECT_NAME": "THEOS", "OBJECT_ID": "2008-049A", "EPOCH": "2025-12-09T12:15:53.214048", "MEAN_MOTION": 14.20096445, "ECCENTRICITY": 0.000111, "INCLINATION": 98.5866, "RA_OF_ASC_NODE": 41.6957, "ARG_OF_PERICENTER": 94.3462, "MEAN_ANOMALY": 265.7842, "EPHEMERIS_TYPE": 0, "CLASSIFICATION_TYPE": "U", "NORAD_CAT_ID": 33396, "ELEMENT_SET_NO": 999, "REV_AT_EPOCH": 89104, "BSTAR": 0.00024829, "MEAN_MOTION_DOT": 4.86e-06, "MEAN_MOTION_DDOT": 0}, "tle": {"line1": "1 33396U 08049A   25343.51103257  .00000486  00000+0  24829-3 0  9991", "line2": "2 33396  98.5866  41.6957 0001110  94.3462 265.7842 14.20096445891042"}}, "geometry": {"type": "Point", "coordinates": [96.01468802050688, -79.43822537461045]}}, {"type": "Feature", "properties": {"norad_id": 33412, "name": "COSMO-SKYMED 3", "group": "resource", "lat": 25.653539619511438, "lon": 17.843219232142733, "alt_km": 540.2857148448684, "timestamp": "2025-12-09T16:56:36.236753+00:00", "meta": {"OBJECT_NAME": "COSMO-SKYMED 3", "OBJECT_ID": "2008-054A", "EPOCH": "2025-12-09T13:04:13.329408", "MEAN_MOTION": 15.05300892, "ECCENTRICITY": 0.0015929, "INCLINATION": 97.8458, "RA_OF_ASC_NODE": 193.882, "ARG_OF_PERICENTER": 185.0233, "MEAN_ANOMALY": 175.0836, "EPHEMERIS_TYPE": 0, "CLASSIFICATION_TYPE": "U", "NORAD_CAT_ID": 33412, "ELEMENT_SET_NO": 999, "REV_AT_EPOCH": 92839, "BSTAR": 0.00030457, "MEAN_MOTION_DOT": 4.303e-05, "MEAN_MOTION_DDOT": 0}, "tle": {"line1": "1 33412U 08054A   25343.54459872  .00004303  00000+0  30457-3 0  9992", "line2": "2 33412  97.8458 193.8820 0015929 185.0233 175.0836 15.05300892928399"}}, "geometry": {"type": "Point", "coordinates": [17.843219232142733, 25.653539619511438]}}, {"type": "Feature", "properties": {"norad_id": 33446, "name": "YAOGAN-4", "group": "resource", "lat": 22.24455755208301, "lon": -89.4282564483919, "alt_km": 614.2633860164888, "timestamp": "2025-12-09T16:56:36.236764+00:00", "meta": {"OBJECT_NAME": "YAOGAN-4", "OBJECT_ID": "2008-061A", "EPOCH": "2025-12-09T10:21:49.775040", "MEAN_MOTION": 14.82667366, "ECCENTRICITY": 0.0013862, "INCLINATION": 97.9179, "RA_OF_ASC_NODE": 273.5635, "ARG_OF_PERICENTER": 334.6053, "MEAN_ANOMALY": 25.4478, "EPHEMERIS_TYPE": 0, "CLASSIFICATION_TYPE": "U", "NORAD_CAT_ID": 33446, "ELEMENT_SET_NO": 999, "REV_AT_EPOCH": 91754, "BSTAR": 0.00036362, "MEAN_MOTION_DOT": 2.883e-05, "MEAN_MOTION_DDOT": 0}, "tle": {"line1": "1 33446U 08061A   25343.43182610  .00002883  00000+0  36362-3 0  9990", "line2": "2 33446  97.9179 273.5635 0013862 334.6053  25.4478 14.82667366917544"}}, "geometry": {"type": "Point", "coordinates": [-89.4282564483919, 22.24455755208301]}}]}